STARLINK-2452           
1 48115U 21027Z   26017.32709195  .00001306  00000+0  10652-3 0  9999
2 48115  53.0554  32.2027 0001375  80.0214 280.0930 15.06408769264819
STARLINK-2454           
1 48116U 21027AA  26017.46622808  .00003360  00000+0  24425-3 0  9995
2 48116  53.0549  41.5693 0001191  88.8328 271.2797 15.06410878264697
STARLINK-2455           
1 48117U 21027AB  26017.83573906  .00000440  00000+0  48417-4 0  9995
2 48117  53.0551  19.9016 0001586  89.8936 270.2235 15.06399911265032
STARLINK-2459           
1 48119U 21027AD  26017.84310592  .00000915  00000+0  80343-4 0  9999
2 48119  53.0557  19.8677 0001587  86.0895 274.0275 15.06397650265029
STARLINK-2460           
1 48120U 21027AE  26017.78322645  .00001008  00000+0  86572-4 0  9990
2 48120  53.0546  40.1469 0001506  88.0209 272.0953 15.06400498264752
STARLINK-2462           
1 48121U 21027AF  26017.75466713  .00000967  00000+0  83786-4 0  9990
2 48121  53.0547  30.2748 0001400  82.7893 277.3255 15.06399782264876
STARLINK-2464           
1 48123U 21027AH  26017.43121668  .00002104  00000+0  16008-3 0  9991
2 48123  53.0557  21.7254 0001371  98.8954 261.2191 15.06411670264972
STARLINK-2465           
1 48124U 21027AJ  26017.96108223  .00000074  00000+0  23846-4 0  9995
2 48124  53.0558  29.3484 0001393  86.4133 273.7015 15.06400728264907
STARLINK-2466           
1 48125U 21027AK  26017.77589319  .00000498  00000+0  52324-4 0  9997
2 48125  53.0547  40.4198 0001520  83.3619 276.7543 15.06397883264747
STARLINK-2467           
1 48126U 21027AL  26017.72979396  .00001137  00000+0  95208-4 0  9990
2 48126  53.0558  20.3853 0001306  88.6695 271.4444 15.06399845265023
STARLINK-2468           
1 48127U 21027AM  26017.78691821 -.00000063  00000+0  14673-4 0  9996
2 48127  53.0547  40.1284 0001381  99.0732 261.0413 15.06401067264740
STARLINK-2469           
1 48128U 21027AN  26017.56854356 -.00001048  00000+0 -51449-4 0  9994
2 48128  53.0565 331.1954 0002196  85.4382 274.6858 15.06403971265686
STARLINK-2471           
1 48129U 21027AP  26017.77955139 -.00000464  00000+0 -12269-4 0  9997
2 48129  53.0557  40.1637 0001499  84.2701 275.8459 15.06395970264745
STARLINK-2472           
1 48130U 21027AQ  26018.00002315  .00045468  00000+0  15792-2 0  9998
2 48130  53.1551  43.5788 0001526  92.6614  66.8676 15.29337209  5796
STARLINK-2473           
1 48131U 21027AR  26017.98780858 -.00000726  00000+0 -29872-4 0  9996
2 48131  53.0558  19.2288 0001499  89.6617 270.4544 15.06398232265058
STARLINK-2474           
1 48132U 21027AS  26017.76849097 -.00000342  00000+0 -40614-5 0  9996
2 48132  53.0574  40.2100 0001584  87.9422 272.1749 15.06401524264733
