[{"OBJECT_NAME":"STARLINK-2452","OBJECT_ID":"2021-027Z","EPOCH":"2026-01-17T07:51:00.744480","MEAN_MOTION":15.06408769,"ECCENTRICITY":0.00013753,"INCLINATION":53.0554,"RA_OF_ASC_NODE":32.2027,"ARG_OF_PERICENTER":80.0214,"MEAN_ANOMALY":280.093,"EPHEMERIS_TYPE":0,"CLASSIFICATION_TYPE":"U","NORAD_CAT_ID":48115,"ELEMENT_SET_NO":999,"REV_AT_EPOCH":26481,"BSTAR":0.0001065231,"MEAN_MOTION_DOT":1.306e-5,"MEAN_MOTION_DDOT":0},{"OBJECT_NAME":"STARLINK-2454","OBJECT_ID":"2021-027AA","EPOCH":"2026-01-17T11:11:22.106112","MEAN_MOTION":15.06410878,"ECCENTRICITY":0.00011914,"INCLINATION":53.0549,"RA_OF_ASC_NODE":41.5693,"ARG_OF_PERICENTER":88.8328,"MEAN_ANOMALY":271.2797,"EPHEMERIS_TYPE":0,"CLASSIFICATION_TYPE":"U","NORAD_CAT_ID":48116,"ELEMENT_SET_NO":999,"REV_AT_EPOCH":26469,"BSTAR":0.00024425195,"MEAN_MOTION_DOT":3.36e-5,"MEAN_MOTION_DDOT":0},{"OBJECT_NAME":"STARLINK-2455","OBJECT_ID":"2021-027AB","EPOCH":"2026-01-17T20:03:27.854784","MEAN_MOTION":15.06399911,"ECCENTRICITY":0.00015868,"INCLINATION":53.0551,"RA_OF_ASC_NODE":19.9016,"ARG_OF_PERICENTER":89.8936,"MEAN_ANOMALY":270.2235,"EPHEMERIS_TYPE":0,"CLASSIFICATION_TYPE":"U","NORAD_CAT_ID":48117,"ELEMENT_SET_NO":999,"REV_AT_EPOCH":26503,"BSTAR":4.8417203e-5,"MEAN_MOTION_DOT":4.4e-6,"MEAN_MOTION_DDOT":0},{"OBJECT_NAME":"STARLINK-2459","OBJECT_ID":"2021-027AD","EPOCH":"2026-01-17T20:14:04.351488","MEAN_MOTION":15.0639765,"ECCENTRICITY":0.00015874,"INCLINATION":53.0557,"RA_OF_ASC_NODE":19.8677,"ARG_OF_PERICENTER":86.0895,"MEAN_ANOMALY":274.0275,"EPHEMERIS_TYPE":0,"CLASSIFICATION_TYPE":"U","NORAD_CAT_ID":48119,"ELEMENT_SET_NO":999,"REV_AT_EPOCH":26502,"BSTAR":8.0342544e-5,"MEAN_MOTION_DOT":9.15e-6,"MEAN_MOTION_DDOT":0},{"OBJECT_NAME":"STARLINK-2460","OBJECT_ID":"2021-027AE","EPOCH":"2026-01-17T18:47:50.765280","MEAN_MOTION":15.06400498,"ECCENTRICITY":0.00015069,"INCLINATION":53.0546,"RA_OF_ASC_NODE":40.1469,"ARG_OF_PERICENTER":88.0209,"MEAN_ANOMALY":272.0953,"EPHEMERIS_TYPE":0,"CLASSIFICATION_TYPE":"U","NORAD_CAT_ID":48120,"ELEMENT_SET_NO":999,"REV_AT_EPOCH":26475,"BSTAR":8.6571663e-5,"MEAN_MOTION_DOT":1.008e-5,"MEAN_MOTION_DDOT":0},{"OBJECT_NAME":"STARLINK-2462","OBJECT_ID":"2021-027AF","EPOCH":"2026-01-17T18:06:43.240032","MEAN_MOTION":15.06399782,"ECCENTRICITY":0.00014001,"INCLINATION":53.0547,"RA_OF_ASC_NODE":30.2748,"ARG_OF_PERICENTER":82.7893,"MEAN_ANOMALY":277.3255,"EPHEMERIS_TYPE":0,"CLASSIFICATION_TYPE":"U","NORAD_CAT_ID":48121,"ELEMENT_SET_NO":999,"REV_AT_EPOCH":26487,"BSTAR":8.3786157e-5,"MEAN_MOTION_DOT":9.67e-6,"MEAN_MOTION_DDOT":0},{"OBJECT_NAME":"STARLINK-2464","OBJECT_ID":"2021-027AH","EPOCH":"2026-01-17T10:20:57.121152","MEAN_MOTION":15.0641167,"ECCENTRICITY":0.00013713,"INCLINATION":53.0557,"RA_OF_ASC_NODE":21.7254,"ARG_OF_PERICENTER":98.8954,"MEAN_ANOMALY":261.2191,"EPHEMERIS_TYPE":0,"CLASSIFICATION_TYPE":"U","NORAD_CAT_ID":48123,"ELEMENT_SET_NO":999,"REV_AT_EPOCH":26497,"BSTAR":0.00016007764,"MEAN_MOTION_DOT":2.104e-5,"MEAN_MOTION_DDOT":0},{"OBJECT_NAME":"STARLINK-2465","OBJECT_ID":"2021-027AJ","EPOCH":"2026-01-17T23:03:57.504672","MEAN_MOTION":15.06400728,"ECCENTRICITY":0.00013937,"INCLINATION":53.0558,"RA_OF_ASC_NODE":29.3484,"ARG_OF_PERICENTER":86.4133,"MEAN_ANOMALY":273.7015,"EPHEMERIS_TYPE":0,"CLASSIFICATION_TYPE":"U","NORAD_CAT_ID":48124,"ELEMENT_SET_NO":999,"REV_AT_EPOCH":26490,"BSTAR":2.3846237e-5,"MEAN_MOTION_DOT":7.4e-7,"MEAN_MOTION_DDOT":0},{"OBJECT_NAME":"STARLINK-2466","OBJECT_ID":"2021-027AK","EPOCH":"2026-01-17T18:37:17.171616","MEAN_MOTION":15.06397883,"ECCENTRICITY":0.00015203,"INCLINATION":53.0547,"RA_OF_ASC_NODE":40.4198,"ARG_OF_PERICENTER":83.3619,"MEAN_ANOMALY":276.7543,"EPHEMERIS_TYPE":0,"CLASSIFICATION_TYPE":"U","NORAD_CAT_ID":48125,"ELEMENT_SET_NO":999,"REV_AT_EPOCH":26474,"BSTAR":5.2323827e-5,"MEAN_MOTION_DOT":4.98e-6,"MEAN_MOTION_DDOT":0},{"OBJECT_NAME":"STARLINK-2467","OBJECT_ID":"2021-027AL","EPOCH":"2026-01-17T17:30:54.198144","MEAN_MOTION":15.06399845,"ECCENTRICITY":0.00013063,"INCLINATION":53.0558,"RA_OF_ASC_NODE":20.3853,"ARG_OF_PERICENTER":88.6695,"MEAN_ANOMALY":271.4444,"EPHEMERIS_TYPE":0,"CLASSIFICATION_TYPE":"U","NORAD_CAT_ID":48126,"ELEMENT_SET_NO":999,"REV_AT_EPOCH":26502,"BSTAR":9.5208433e-5,"MEAN_MOTION_DOT":1.137e-5,"MEAN_MOTION_DDOT":0},{"OBJECT_NAME":"STARLINK-2468","OBJECT_ID":"2021-027AM","EPOCH":"2026-01-17T18:53:09.733344","MEAN_MOTION":15.06401067,"ECCENTRICITY":0.00013817,"INCLINATION":53.0547,"RA_OF_ASC_NODE":40.1284,"ARG_OF_PERICENTER":99.0732,"MEAN_ANOMALY":261.0413,"EPHEMERIS_TYPE":0,"CLASSIFICATION_TYPE":"U","NORAD_CAT_ID":48127,"ELEMENT_SET_NO":999,"REV_AT_EPOCH":26474,"BSTAR":1.4673221e-5,"MEAN_MOTION_DOT":-6.3e-7,"MEAN_MOTION_DDOT":0},{"OBJECT_NAME":"STARLINK-2469","OBJECT_ID":"2021-027AN","EPOCH":"2026-01-17T13:38:42.163584","MEAN_MOTION":15.06403971,"ECCENTRICITY":0.00021964,"INCLINATION":53.0565,"RA_OF_ASC_NODE":331.1954,"ARG_OF_PERICENTER":85.4382,"MEAN_ANOMALY":274.6858,"EPHEMERIS_TYPE":0,"CLASSIFICATION_TYPE":"U","NORAD_CAT_ID":48128,"ELEMENT_SET_NO":999,"REV_AT_EPOCH":26568,"BSTAR":-5.1449261e-5,"MEAN_MOTION_DOT":-1.048e-5,"MEAN_MOTION_DDOT":0},{"OBJECT_NAME":"STARLINK-2471","OBJECT_ID":"2021-027AP","EPOCH":"2026-01-17T18:42:33.240096","MEAN_MOTION":15.0639597,"ECCENTRICITY":0.00014993,"INCLINATION":53.0557,"RA_OF_ASC_NODE":40.1637,"ARG_OF_PERICENTER":84.2701,"MEAN_ANOMALY":275.8459,"EPHEMERIS_TYPE":0,"CLASSIFICATION_TYPE":"U","NORAD_CAT_ID":48129,"ELEMENT_SET_NO":999,"REV_AT_EPOCH":26474,"BSTAR":-1.2269244e-5,"MEAN_MOTION_DOT":-4.64e-6,"MEAN_MOTION_DDOT":0},{"OBJECT_NAME":"STARLINK-2472","OBJECT_ID":"2021-027AQ","EPOCH":"2026-01-18T00:00:02.000160","MEAN_MOTION":15.29337209,"ECCENTRICITY":0.00015268,"INCLINATION":53.1551,"RA_OF_ASC_NODE":43.5788,"ARG_OF_PERICENTER":92.6614,"MEAN_ANOMALY":66.8676,"EPHEMERIS_TYPE":0,"CLASSIFICATION_TYPE":"U","NORAD_CAT_ID":48130,"ELEMENT_SET_NO":999,"REV_AT_EPOCH":579,"BSTAR":0.0015792436,"MEAN_MOTION_DOT":0.00045468,"MEAN_MOTION_DDOT":0},{"OBJECT_NAME":"STARLINK-2473","OBJECT_ID":"2021-027AR","EPOCH":"2026-01-17T23:42:26.661312","MEAN_MOTION":15.06398232,"ECCENTRICITY":0.00014992,"INCLINATION":53.0558,"RA_OF_ASC_NODE":19.2288,"ARG_OF_PERICENTER":89.6617,"MEAN_ANOMALY":270.4544,"EPHEMERIS_TYPE":0,"CLASSIFICATION_TYPE":"U","NORAD_CAT_ID":48131,"ELEMENT_SET_NO":999,"REV_AT_EPOCH":26505,"BSTAR":-2.9871762e-5,"MEAN_MOTION_DOT":-7.26e-6,"MEAN_MOTION_DDOT":0},{"OBJECT_NAME":"STARLINK-2474","OBJECT_ID":"2021-027AS","EPOCH":"2026-01-17T18:26:37.619808","MEAN_MOTION":15.06401524,"ECCENTRICITY":0.00015844,"INCLINATION":53.0574,"RA_OF_ASC_NODE":40.21,"ARG_OF_PERICENTER":87.9422,"MEAN_ANOMALY":272.1749,"EPHEMERIS_TYPE":0,"CLASSIFICATION_TYPE":"U","NORAD_CAT_ID":48132,"ELEMENT_SET_NO":999,"REV_AT_EPOCH":26473,"BSTAR":-4.061439e-6,"MEAN_MOTION_DOT":-3.42e-6,"MEAN_MOTION_DDOT":0}]
